STARLINK-32692          
1 62422U 24249P   25151.23476516  .00031270  00000+0  11411-2 0  9997
2 62422  43.0026 117.1872 0001699 269.5872  90.4785 15.27578250 24522
STARLINK-32680          
1 62423U 24249Q   25151.58334491 -.01170176  00000+0 -33363-1 0  9992
2 62423  43.0009 107.6875 0001373 272.2078 109.0865 15.38237768  5757
STARLINK-32638          
1 62424U 24249R   25151.37919110  .00025736  00000+0  94110-3 0  9994
2 62424  43.0030 120.0375 0001657 270.7033  89.3629 15.27593553 24502
STARLINK-32283          
1 62425U 24249S   25151.56301867  .00038712  00000+0  92900-3 0  9993
2 62425  42.9988 107.5831 0001010 257.9618 102.1126 15.40709617 24667
STARLINK-32676          
1 62426U 24249T   25151.58334491 -.01169974  00000+0 -36934-1 0  9996
2 62426  43.0009 107.8528 0001573 275.2610  37.4866 15.35107332  5748
STARLINK-32659          
1 62427U 24249U   25150.95505374  .00051685  00000+0  12352-2 0  9992
2 62427  43.0009 111.6261 0001526 246.8923 113.1773 15.40723794 24624
STARLINK-32614          
1 62428U 24249V   25151.36168416  .00018588  00000+0  68319-3 0  9991
2 62428  43.0034 116.4342 0001726 279.6341  80.4315 15.27585408 24548
STARLINK-32418          
1 62429U 24249W   25151.56973729  .00037407  00000+0  89805-3 0  9999
2 62429  43.0015 107.6326 0001271 262.2365  97.8348 15.40710250 24662
STARLINK-32702          
1 62432U 24251A   25151.50957868  .00032047  00000+0  80755-3 0  9996
2 62432  53.1579 206.8379 0001045  88.6983 271.4142 15.39628766 24736
STARLINK-32712          
1 62433U 24251B   25151.41216002  .00039134  00000+0  98289-3 0  9990
2 62433  53.1589 206.9402 0001564  86.0614 274.0569 15.39632962 24729
STARLINK-32674          
1 62434U 24251C   25151.46323621  .00022216  00000+0  56338-3 0  9994
2 62434  53.1575 207.2619 0001171 107.7645 252.3487 15.39640894 24729
STARLINK-32711          
1 62435U 24251D   25151.49100411  .00041723  00000+0  10466-2 0  9993
2 62435  53.1586 206.7213 0001117  89.8238 270.2894 15.39641772 24732
STARLINK-32697          
1 62436U 24251E   25151.45360039  .00022478  00000+0  57042-3 0  9992
2 62436  53.1573 207.1983 0001843  59.5496 300.5690 15.39611282 24727
STARLINK-32693          
1 62437U 24251F   25151.44394419  .00022975  00000+0  58223-3 0  9995
2 62437  53.1580 204.2289 0001115  73.8150 286.2977 15.39640316 24763
STARLINK-32721          
1 62438U 24251G   25151.47243039  .00017990  00000+0  45840-3 0  9992
2 62438  53.1586 206.6067 0001457  67.1639 292.9519 15.39637284 24673
STARLINK-32709          
1 62439U 24251H   25151.45828658  .00058156  00000+0  14518-2 0  9993
2 62439  53.1579 207.2288 0001054  68.8321 291.2797 15.39641028 24724
STARLINK-32689          
1 62440U 24251J   25151.48171564  .00021039  00000+0  53423-3 0  9994
2 62440  53.1587 206.6616 0000982  84.7222 275.3894 15.39635544 24737
STARLINK-32724          
1 62441U 24251K   25151.45395251  .00030466  00000+0  76873-3 0  9991
2 62441  53.1580 207.2006 0001184  69.5481 290.5651 15.39614380 24560
STARLINK-32291          
1 62442U 24251L   25151.48602968  .00041166  00000+0  10332-2 0  9997
2 62442  53.1584 206.6885 0001188  78.6207 281.4931 15.39631448 24423
STARLINK-32736          
1 62443U 24251M   25151.45859315  .00014910  00000+0  38188-3 0  9992
2 62443  53.1577 207.2287 0001150  81.8980 278.2156 15.39629766 24560
STARLINK-32737          
1 62444U 24251N   25151.49996001  .00032385  00000+0  81547-3 0  9994
2 62444  53.1581 206.7768 0001084  53.9193 306.1912 15.39645962 24721
STARLINK-32683          
1 62445U 24251P   25151.46755463 -.00182944  00000+0 -47597-2 0  9992
2 62445  53.1580 206.5708 0001855  84.8709 275.2507 15.39066399 24733
STARLINK-32726          
1 62446U 24251Q   25151.48636015  .00028166  00000+0  71118-3 0  9996
2 62446  53.1583 206.6900 0001310  66.7221 293.3922 15.39635296 24422
STARLINK-32730          
1 62447U 24251R   25151.46778572  .00021725  00000+0  55121-3 0  9990
2 62447  53.1584 206.5704 0001157  84.7775 275.3362 15.39639530 24735
STARLINK-32719          
1 62448U 24251S   25151.47750556  .00026663  00000+0  90893-3 0  9995
2 62448  53.1589 206.4907 0001099  79.5882 280.5242 15.30207298 24560
STARLINK-32723          
1 62449U 24251T   25151.50460303  .00033520  00000+0  84363-3 0  9993
2 62449  53.1578 206.8045 0001038  80.0754 280.0368 15.39643923 24577
STARLINK-32722          
1 62450U 24251U   25151.47209937  .00028379  00000+0  71634-3 0  9998
2 62450  53.1584 206.5998 0001148  88.1659 271.9477 15.39640550 24365
STARLINK-32720          
1 62451U 24251V   25151.46290857  .00027596  00000+0  69708-3 0  9998
2 62451  53.1576 207.2534 0001139  87.0015 273.1120 15.39633238 24358
STARLINK-32656          
1 62452U 24251W   25151.41647183  .00016979  00000+0  43336-3 0  9994
2 62452  53.1594 206.9623 0001250  79.4525 280.6620 15.39630323 24562
STARLINK-32690          
1 62453U 24251X   25151.50028215  .00033138  00000+0  83595-3 0  9991
2 62453  53.1582 206.7764 0001432  66.0285 294.0870 15.39579242 24356
STARLINK-11518 [DTC]    
1 62462U 24254A   25151.29635445  .00095375  00000+0  73717-3 0  9995
2 62462  43.0026 125.5576 0002128 276.0350  84.0275 15.70874736 24992
STARLINK-11455 [DTC]    
1 62463U 24254B   25151.36525067  .00194468  00000+0  14813-2 0  9996
2 62463  43.0003 125.2144 0000590 270.6059  89.4741 15.70880723 24993
STARLINK-11459 [DTC]    
1 62464U 24254C   25151.38104796  .00194313  00000+0  14789-2 0  9992
2 62464  42.9992 124.4472 0000337 278.7139  81.3690 15.70900459 24994
STARLINK-11178 [DTC]    
1 62465U 24254D   25151.28570624  .00081340  00000+0  63039-3 0  9997
2 62465  43.0004 125.4688 0001430 270.5786  89.4918 15.70871082 24827
STARLINK-11506 [DTC]    
1 62466U 24254E   25151.30679900  .00131698  00000+0  99960-3 0  9992
2 62466  43.0040 124.7435 0001630 290.8957  69.1737 15.71172803 24838
STARLINK-11486 [DTC]    
1 62467U 24254F   25151.29102010 -.00049858  00000+0 -38680-3 0  9994
2 62467  43.0008 125.5113 0001957 271.5941  88.4702 15.70873964 24983
STARLINK-11511 [DTC]    
1 62468U 24254G   25151.33339258  .00183375  00000+0  13990-2 0  9993
2 62468  43.0011 124.9571 0001555 278.3362  81.7329 15.70878718 24999
STARLINK-11505 [DTC]    
1 62469U 24254H   25151.38628225  .00195758  00000+0  14636-2 0  9990
2 62469  43.0008 124.4865 0000335 320.1324  39.9519 15.71319849 24998
STARLINK-11497 [DTC]    
1 62470U 24254J   25151.27511655  .00186103  00000+0  14192-2 0  9999
2 62470  43.0023 125.3816 0002172 271.6270  88.4349 15.70879690 24987
STARLINK-11477 [DTC]    
1 62471U 24254K   25151.39789793  .00195973  00000+0  14905-2 0  9990
2 62471  42.9996 124.5786 0002204  38.6146 321.4879 15.70911576 24990
STARLINK-11500 [DTC]    
1 62472U 24254L   25150.99417013  .00242433  00000+0  17974-2 0  9992
2 62472  43.0025 126.7014 0001337 299.5993  60.4742 15.71375116 24419
STARLINK-11464 [DTC]    
1 62473U 24254M   25151.34401135  .00131047  00000+0  10074-2 0  9993
2 62473  43.0003 125.0390 0001191 265.1776  94.8956 15.70872048 25044
STARLINK-11502 [DTC]    
1 62474U 24254N   25151.01018036  .00214748  00000+0  16093-2 0  9999
2 62474  43.0020 126.8275 0001298 320.9071  39.1703 15.71205890 24947
STARLINK-32657          
1 62475U 24254P   25151.40819055  .00015147  00000+0  55868-3 0  9999
2 62475  42.9993 173.8417 0001467 277.5078  82.5607 15.27588629 24295
STARLINK-32734          
1 62476U 24254Q   25151.10487161  .00024213  00000+0  88682-3 0  9990
2 62476  43.0000 172.4036 0001223 265.8351  94.2361 15.27568135 24436
STARLINK-32733          
1 62477U 24254R   25151.32658736  .00019015  00000+0  69865-3 0  9999
2 62477  43.0010 170.6192 0002129 273.7301  86.3307 15.27582576 24471
STARLINK-32707          
1 62478U 24254S   25151.42152629  .00018845  00000+0  69269-3 0  9999
2 62478  43.0007 170.4733 0001533 270.6441  89.4235 15.27574952 24480
STARLINK-32705          
1 62479U 24254T   25151.50186768  .00016254  00000+0  59877-3 0  9996
2 62479  42.9997 162.4401 0001665 267.1625  92.9036 15.27585531 24428
STARLINK-32743          
1 62480U 24254U   25151.44964984  .00019442  00000+0  71401-3 0  9994
2 62480  43.0023 169.8276 0002037 272.4588  87.6030 15.27585935 24494
STARLINK-32753          
1 62481U 24254V   25151.39965786  .00019368  00000+0  71157-3 0  9995
2 62481  43.0009 170.3049 0001754 260.2410  99.8244 15.27576662 24486
STARLINK-32699          
1 62482U 24254W   25151.33637980  .00017582  00000+0  64685-3 0  9996
2 62482  43.0008 174.1618 0001845 285.0479  75.0168 15.27583075 24286
STARLINK-32713          
1 62487U 25003A   25151.50034538  .00016199  00000+0  59687-3 0  9992
2 62487  43.0013  82.6919 0001376 269.3864  90.6830 15.27581799 23498
STARLINK-32732          
1 62488U 25003B   25151.53232467  .00020652  00000+0  75794-3 0  9993
2 62488  43.0007  82.0687 0001377 282.7554  77.3143 15.27578497 23360
STARLINK-32328          
1 62489U 25003C   25151.18884315  .00026786  00000+0  98032-3 0  9994
2 62489  43.0012  84.6532 0001676 264.9534  95.1127 15.27548001 23465
STARLINK-32332          
1 62490U 25003D   25151.50420020  .00018154  00000+0  66760-3 0  9994
2 62490  42.9982  82.7201 0001344 263.3814  96.6885 15.27579558 23490
STARLINK-32717          
1 62491U 25003E   25151.22338340  .00019621  00000+0  72102-3 0  9994
2 62491  43.0000  84.0513 0001675 279.0288  81.0374 15.27561899 23479
STARLINK-32757          
1 62492U 25003F   25151.51062349  .00017590  00000+0  64721-3 0  9991
2 62492  43.0037  82.7645 0001770 268.7226  91.3423 15.27578640 23396
STARLINK-32731          
1 62493U 25003G   25151.52348006  .00019496  00000+0  71624-3 0  9997
2 62493  42.9987  82.8667 0000722 286.1444  73.9328 15.27574554 23510
STARLINK-32694          
1 62494U 25003H   25151.21309949  .00022329  00000+0  81848-3 0  9995
2 62494  43.0026  83.9715 0001488 274.4334  85.6347 15.27580555 23475
